start=new Date('2022-04-28T00:00:00.000Z').valueOf();
sats=[{"REF_FRAME":"TEME","OBJECT_TYPE":"PAYLOAD","ELEMENT_SET_NO":"999","LAUNCH_DATE":"2020-10-18","MEAN_ANOMALY":"314.5616","MEAN_ELEMENT_THEORY":"SGP4","CLASSIFICATION_TYPE":"U","MEAN_MOTION":"15.06398390","ARG_OF_PERICENTER":"45.5556","OBJECT_ID":"2020-073AN","TIME_SYSTEM":"UTC","EPOCH":"2022-04-27T15:27:37.340352","SITE":"AFETR","REV_AT_EPOCH":"8478","MEAN_MOTION_DDOT":"0.0000000000000","PERIOD":"95.592","CENTER_NAME":"EARTH","DECAY_DATE":null,"APOAPSIS":"548.769","NORAD_CAT_ID":"46706","OBJECT_NAME":"STARLINK-1807","TLE_LINE2":"2 46706  53.0554 100.5398 0002239  45.5556 314.5616 15.06398390 84786","COUNTRY_CODE":"US","RA_OF_ASC_NODE":"100.5398","INCLINATION":"53.0554","GP_ID":"202166916","BSTAR":"0.00019783000000","RCS_SIZE":"LARGE","ECCENTRICITY":"0.00022390","EPHEMERIS_TYPE":"0","TLE_LINE1":"1 46706U 20073AN  22117.64418218  .00002666  00000-0  19783-3 0  9993","SEMIMAJOR_AXIS":"6925.353","MEAN_MOTION_DOT":"0.00002666","FILE":"3418724","PERIAPSIS":"545.668"},{"OBJECT_ID":"2020-073AP","TIME_SYSTEM":"UTC","EPOCH":"2022-04-27T15:14:20.867136","OBJECT_TYPE":"PAYLOAD","REF_FRAME":"TEME","ELEMENT_SET_NO":"999","LAUNCH_DATE":"2020-10-18","MEAN_ELEMENT_THEORY":"SGP4","MEAN_ANOMALY":"308.3321","CLASSIFICATION_TYPE":"U","MEAN_MOTION":"15.06397759","ARG_OF_PERICENTER":"51.7854","NORAD_CAT_ID":"46707","OBJECT_NAME":"STARLINK-1808","SITE":"AFETR","MEAN_MOTION_DDOT":"0.0000000000000","REV_AT_EPOCH":"8507","PERIOD":"95.592","DECAY_DATE":null,"CENTER_NAME":"EARTH","APOAPSIS":"548.654","COUNTRY_CODE":"US","RA_OF_ASC_NODE":"80.5656","INCLINATION":"53.0564","TLE_LINE2":"2 46707  53.0564  80.5656 0002070  51.7854 308.3321 15.06397759 85070","SEMIMAJOR_AXIS":"6925.355","MEAN_MOTION_DOT":"-0.00000942","FILE":"3418725","PERIAPSIS":"545.787","GP_ID":"202166663","BSTAR":"-0.00004431400000","ECCENTRICITY":"0.00020700","RCS_SIZE":"LARGE","EPHEMERIS_TYPE":"0","TLE_LINE1":"1 46707U 20073AP  22117.63496374 -.00000942  00000-0 -44314-4 0  9998"},{"CLASSIFICATION_TYPE":"U","MEAN_MOTION":"15.79723035","ARG_OF_PERICENTER":"175.7017","REF_FRAME":"TEME","OBJECT_TYPE":"PAYLOAD","LAUNCH_DATE":"2020-10-18","MEAN_ELEMENT_THEORY":"SGP4","ELEMENT_SET_NO":"999","MEAN_ANOMALY":"184.4032","EPOCH":"2022-04-27T20:09:59.839488","OBJECT_ID":"2020-073AQ","TIME_SYSTEM":"UTC","PERIOD":"91.155","APOAPSIS":"333.328","DECAY_DATE":null,"CENTER_NAME":"EARTH","SITE":"AFETR","MEAN_MOTION_DDOT":"0.0000000000000","REV_AT_EPOCH":"8621","OBJECT_NAME":"STARLINK-1809","NORAD_CAT_ID":"46708","TLE_LINE2":"2 46708  53.0487   0.0018 0003132 175.7017 184.4032 15.79723035 86211","INCLINATION":"53.0487","COUNTRY_CODE":"US","RA_OF_ASC_NODE":"0.0018","TLE_LINE1":"1 46708U 20073AQ  22117.84027592  .00228483  00000-0  11915-2 0  9993","EPHEMERIS_TYPE":"0","GP_ID":"202169484","ECCENTRICITY":"0.00031320","RCS_SIZE":"LARGE","BSTAR":"0.00119150000000","FILE":"3418820","MEAN_MOTION_DOT":"0.00228483","PERIAPSIS":"329.125","SEMIMAJOR_AXIS":"6709.362"},{"INCLINATION":"53.0544","RA_OF_ASC_NODE":"116.7865","COUNTRY_CODE":"US","TLE_LINE2":"2 46709  53.0544 116.7865 0001948  51.2932 308.8231 15.06399311 84046","PERIAPSIS":"545.867","FILE":"3418497","MEAN_MOTION_DOT":"0.00000957","SEMIMAJOR_AXIS":"6925.351","TLE_LINE1":"1 46709U 20073AR  22117.36725141  .00000957  00000-0  83137-4 0  9997","EPHEMERIS_TYPE":"0","ECCENTRICITY":"0.00019480","RCS_SIZE":"LARGE","BSTAR":"0.00008313700000","GP_ID":"202157429","EPOCH":"2022-04-27T08:48:50.521824","TIME_SYSTEM":"UTC","OBJECT_ID":"2020-073AR","ARG_OF_PERICENTER":"51.2932","MEAN_MOTION":"15.06399311","CLASSIFICATION_TYPE":"U","MEAN_ELEMENT_THEORY":"SGP4","LAUNCH_DATE":"2020-10-18","ELEMENT_SET_NO":"999","MEAN_ANOMALY":"308.8231","OBJECT_TYPE":"PAYLOAD","REF_FRAME":"TEME","OBJECT_NAME":"STARLINK-1810","NORAD_CAT_ID":"46709","APOAPSIS":"548.565","CENTER_NAME":"EARTH","DECAY_DATE":null,"PERIOD":"95.592","MEAN_MOTION_DDOT":"0.0000000000000","REV_AT_EPOCH":"8404","SITE":"AFETR"},{"TIME_SYSTEM":"UTC","OBJECT_ID":"2020-073AS","EPOCH":"2022-04-27T17:30:21.101760","ELEMENT_SET_NO":"999","LAUNCH_DATE":"2020-10-18","MEAN_ELEMENT_THEORY":"SGP4","MEAN_ANOMALY":"305.5809","OBJECT_TYPE":"PAYLOAD","REF_FRAME":"TEME","ARG_OF_PERICENTER":"54.5370","MEAN_MOTION":"15.06404243","CLASSIFICATION_TYPE":"U","NORAD_CAT_ID":"46710","OBJECT_NAME":"STARLINK-1811","MEAN_MOTION_DDOT":"0.0000000000000","REV_AT_EPOCH":"8458","SITE":"AFETR","DECAY_DATE":null,"CENTER_NAME":"EARTH","APOAPSIS":"548.617","PERIOD":"95.592","RA_OF_ASC_NODE":"115.1452","COUNTRY_CODE":"US","INCLINATION":"53.0556","TLE_LINE2":"2 46710  53.0556 115.1452 0002045  54.5370 305.5809 15.06404243 84582","SEMIMAJOR_AXIS":"6925.336","PERIAPSIS":"545.784","MEAN_MOTION_DOT":"0.00001140","FILE":"3418725","BSTAR":"0.00009539200000","RCS_SIZE":"LARGE","ECCENTRICITY":"0.00020450","GP_ID":"202166664","TLE_LINE1":"1 46710U 20073AS  22117.72941090  .00001140  00000-0  95392-4 0  9993","EPHEMERIS_TYPE":"0"},{"INCLINATION":"53.0539","RA_OF_ASC_NODE":"101.7663","COUNTRY_CODE":"US","TLE_LINE2":"2 46711  53.0539 101.7663 0002268  45.0483 315.0690 15.06400774 84260","PERIAPSIS":"545.641","FILE":"3418497","MEAN_MOTION_DOT":"0.00000428","SEMIMAJOR_AXIS":"6925.346","EPHEMERIS_TYPE":"0","TLE_LINE1":"1 46711U 20073AT  22117.37141645  .00000428  00000-0  47652-4 0  9997","RCS_SIZE":"LARGE","ECCENTRICITY":"0.00022680","BSTAR":"0.00004765200000","GP_ID":"202158430","EPOCH":"2022-04-27T08:54:50.381280","TIME_SYSTEM":"UTC","OBJECT_ID":"2020-073AT","ARG_OF_PERICENTER":"45.0483","MEAN_MOTION":"15.06400774","CLASSIFICATION_TYPE":"U","LAUNCH_DATE":"2020-10-18","MEAN_ANOMALY":"315.0690","ELEMENT_SET_NO":"999","MEAN_ELEMENT_THEORY":"SGP4","OBJECT_TYPE":"PAYLOAD","REF_FRAME":"TEME","OBJECT_NAME":"STARLINK-1813","NORAD_CAT_ID":"46711","APOAPSIS":"548.782","DECAY_DATE":null,"CENTER_NAME":"EARTH","PERIOD":"95.592","MEAN_MOTION_DDOT":"0.0000000000000","REV_AT_EPOCH":"8426","SITE":"AFETR"},{"SEMIMAJOR_AXIS":"6925.336","PERIAPSIS":"545.897","FILE":"3418497","MEAN_MOTION_DOT":"0.00001043","ECCENTRICITY":"0.00018830","RCS_SIZE":"LARGE","BSTAR":"0.00008889700000","GP_ID":"202158175","EPHEMERIS_TYPE":"0","TLE_LINE1":"1 46712U 20073AU  22117.33729654  .00001043  00000-0  88897-4 0  9996","RA_OF_ASC_NODE":"101.9095","COUNTRY_CODE":"US","INCLINATION":"53.0537","TLE_LINE2":"2 46712  53.0537 101.9095 0001883  50.2455 309.8699 15.06404123 84250","NORAD_CAT_ID":"46712","OBJECT_NAME":"STARLINK-1814","REV_AT_EPOCH":"8425","MEAN_MOTION_DDOT":"0.0000000000000","SITE":"AFETR","APOAPSIS":"548.505","CENTER_NAME":"EARTH","DECAY_DATE":null,"PERIOD":"95.592","TIME_SYSTEM":"UTC","OBJECT_ID":"2020-073AU","EPOCH":"2022-04-27T08:05:42.421056","MEAN_ANOMALY":"309.8699","LAUNCH_DATE":"2020-10-18","ELEMENT_SET_NO":"999","MEAN_ELEMENT_THEORY":"SGP4","REF_FRAME":"TEME","OBJECT_TYPE":"PAYLOAD","ARG_OF_PERICENTER":"50.2455","CLASSIFICATION_TYPE":"U","MEAN_MOTION":"15.06404123"},{"TLE_LINE1":"1 46713U 20073AV  22117.34929870  .00002253  00000-0  17014-3 0  9996","EPHEMERIS_TYPE":"0","RCS_SIZE":"LARGE","ECCENTRICITY":"0.00017470","BSTAR":"0.00017014000000","GP_ID":"202156929","PERIAPSIS":"546.014","FILE":"3418497","MEAN_MOTION_DOT":"0.00002253","SEMIMAJOR_AXIS":"6925.359","TLE_LINE2":"2 46713  53.0534 101.8535 0001747  47.7461 312.3676 15.06396601 84258","INCLINATION":"53.0534","RA_OF_ASC_NODE":"101.8535","COUNTRY_CODE":"US","APOAPSIS":"548.434","DECAY_DATE":null,"CENTER_NAME":"EARTH","PERIOD":"95.592","MEAN_MOTION_DDOT":"0.0000000000000","REV_AT_EPOCH":"8425","SITE":"AFETR","OBJECT_NAME":"STARLINK-1815","NORAD_CAT_ID":"46713","ARG_OF_PERICENTER":"47.7461","CLASSIFICATION_TYPE":"U","MEAN_MOTION":"15.06396601","LAUNCH_DATE":"2020-10-18","ELEMENT_SET_NO":"999","MEAN_ELEMENT_THEORY":"SGP4","MEAN_ANOMALY":"312.3676","OBJECT_TYPE":"PAYLOAD","REF_FRAME":"TEME","EPOCH":"2022-04-27T08:22:59.407680","TIME_SYSTEM":"UTC","OBJECT_ID":"2020-073AV"},{"INCLINATION":"53.0539","COUNTRY_CODE":"US","RA_OF_ASC_NODE":"100.4237","TLE_LINE2":"2 46714  53.0539 100.4237 0001832  52.5508 307.5647 15.06394345 84784","MEAN_MOTION_DOT":"0.00000162","FILE":"3418737","PERIAPSIS":"545.962","SEMIMAJOR_AXIS":"6925.366","EPHEMERIS_TYPE":"0","TLE_LINE1":"1 46714U 20073AW  22117.66998287  .00000162  00000-0  29765-4 0  9994","GP_ID":"202166679","BSTAR":"0.00002976500000","RCS_SIZE":"LARGE","ECCENTRICITY":"0.00018320","EPOCH":"2022-04-27T16:04:46.519968","OBJECT_ID":"2020-073AW","TIME_SYSTEM":"UTC","CLASSIFICATION_TYPE":"U","MEAN_MOTION":"15.06394345","ARG_OF_PERICENTER":"52.5508","REF_FRAME":"TEME","OBJECT_TYPE":"PAYLOAD","ELEMENT_SET_NO":"999","LAUNCH_DATE":"2020-10-18","MEAN_ANOMALY":"307.5647","MEAN_ELEMENT_THEORY":"SGP4","OBJECT_NAME":"STARLINK-1816","NORAD_CAT_ID":"46714","PERIOD":"95.592","CENTER_NAME":"EARTH","DECAY_DATE":null,"APOAPSIS":"548.500","SITE":"AFETR","MEAN_MOTION_DDOT":"0.0000000000000","REV_AT_EPOCH":"8478"},{"MEAN_MOTION":"15.06399590","CLASSIFICATION_TYPE":"U","ARG_OF_PERICENTER":"43.8753","OBJECT_TYPE":"PAYLOAD","REF_FRAME":"TEME","MEAN_ANOMALY":"316.2400","LAUNCH_DATE":"2020-10-18","ELEMENT_SET_NO":"999","MEAN_ELEMENT_THEORY":"SGP4","EPOCH":"2022-04-27T15:59:28.104000","OBJECT_ID":"2020-073AX","TIME_SYSTEM":"UTC","PERIOD":"95.592","APOAPSIS":"548.648","DECAY_DATE":null,"CENTER_NAME":"EARTH","SITE":"AFETR","MEAN_MOTION_DDOT":"0.0000000000000","REV_AT_EPOCH":"8478","OBJECT_NAME":"STARLINK-1817","NORAD_CAT_ID":"46715","TLE_LINE2":"2 46715  53.0551 100.4442 0002069  43.8753 316.2400 15.06399590 84786","INCLINATION":"53.0551","COUNTRY_CODE":"US","RA_OF_ASC_NODE":"100.4442","TLE_LINE1":"1 46715U 20073AX  22117.66629750  .00001691  00000-0  13244-3 0  9993","EPHEMERIS_TYPE":"0","GP_ID":"202166673","ECCENTRICITY":"0.00020690","RCS_SIZE":"LARGE","BSTAR":"0.00013244000000","FILE":"3418737","MEAN_MOTION_DOT":"0.00001691","PERIAPSIS":"545.782","SEMIMAJOR_AXIS":"6925.350"}];
